GLOBALSTAR M075         
1 37192U 10054E   25266.69276399 -.00000100  00000+0  20455-4 0  9995
2 37192  51.9930 241.6096 0000364  67.7700 102.8179 12.62267812688286
GLOBALSTAR M073         
1 37193U 10054F   25266.97484949 -.00000066  00000+0  20829-3 0  9994
2 37193  52.0051 154.6462 0000735  86.9419 285.6438 12.62262753690319
GLOBALSTAR M083         
1 37739U 11033A   25266.92643762 -.00000063  00000+0  22772-3 0  9999
2 37739  51.9842 103.3871 0000953  88.8308   4.1810 12.62276207659329
GLOBALSTAR M088         
1 37740U 11033B   25266.56597840 -.00000106  00000+0 -11910-4 0  9998
2 37740  52.0246  10.2663 0000630  95.4092 278.1659 12.62267803654828
GLOBALSTAR M091         
1 37741U 11033C   25266.93023021 -.00000087  00000+0  91350-4 0  9998
2 37741  52.0018 332.5173 0000647  94.9669  75.8784 12.62259807655652
GLOBALSTAR M085         
1 37742U 11033D   25266.83783524 -.00000094  00000+0  55408-4 0  9991
2 37742  52.0118 283.8593 0000586  87.6996  82.6143 12.62264965656154
GLOBALSTAR M081         
1 37743U 11033E   25266.78572666 -.00000085  00000+0  10448-3 0  9993
2 37743  51.9953 286.7585 0000475 109.0754  63.6155 12.62268517656295
GLOBALSTAR M089         
1 37744U 11033F   25266.66644934 -.00000103  00000+0  65296-5 0  9993
2 37744  51.9915 241.3283 0000142  52.6154 118.6086 12.62266989657122
